NARSSCUBE-2             
1 44415U 19022E   22351.30485845  .00016292  00000+0  43191-3 0  9992
2 44415  51.6391 310.3683 0010361   6.1420 353.9690 15.38419175188223
DUCHIFAT-3              
1 44854U 19089C   22351.68712912  .00006579  00000+0  48961-3 0  9998
2 44854  36.9636  92.9724 0008007 277.8250  82.1590 15.02623598165490
OPS-SAT                 
1 44878U 19092F   22352.05572266  .00014600  00000+0  60406-3 0  9998
2 44878  97.4764 174.9047 0012730  61.2306 299.0208 15.23984259166116
FLORIPASAT-1            
1 44885U 19093G   22352.14681825  .00003009  00000+0  36789-3 0  9997
2 44885  97.8846  70.4501 0013067 316.2518  43.7673 14.83937985162087
HUSKYSAT-1 (HO-107)     
1 45119U 19071J   22352.07368204  .00053868  00000+0  73528-3 0  9999
2 45119  51.6336 230.5632 0010976 132.4247 227.7675 15.56878165161830
BY70-2                  
1 45857U 20042B   22352.13136062  .00011596  00000+0  14431-2 0  9999
2 45857  97.9430  67.4138 0009241 234.6437 125.3956 14.82636950132648
SALSAT                  
1 46495U 20068K   22351.80876859  .00003533  00000+0  24944-3 0  9997
2 46495  97.7489 293.4477 0016872  20.7739 339.4170 15.05491650121762
NETSAT-4                
1 46504U 20068U   22351.87446338  .00004044  00000+0  29153-3 0  9995
2 46504  97.7422 291.6093 0013426  65.1747 295.0875 15.04659806121619
NETSAT-3                
1 46505U 20068V   22351.89536421  .00004919  00000+0  35400-3 0  9994
2 46505  97.7405 291.5168 0012671  75.4692 284.7925 15.04624257121621
NETSAT-1                
1 46506U 20068W   22351.78575943  .00005483  00000+0  39496-3 0  9991
2 46506  97.7388 291.3185 0010283  82.2611 277.9783 15.04556419121601
NETSAT-2                
1 46507U 20068X   22351.79669071  .00004670  00000+0  33707-3 0  9995
2 46507  97.7400 291.3217 0009820  85.4822 274.7529 15.04564283121552
BY70-3                  
1 46839U 20079N   22352.11237762  .00061398  00000+0  94702-3 0  9992
2 46839  97.1787  62.8150 0004341  39.7712   7.6248 15.53944827118638
UVSQ-SAT                
1 47438U 21006AB  22351.68073791  .00008885  00000+0  43645-3 0  9992
2 47438  97.4147  46.9572 0011298   6.9084 353.2303 15.18233409105057
SOMP2B                  
1 47445U 21006AJ  22351.72711652  .00008383  00000+0  41808-3 0  9992
2 47445  97.4118  46.4942 0011167  10.9086 349.2388 15.17721886105048
DIY-1 (ARDUIQUBE)       
1 47963U 21022AH  22351.70186856  .00032805  00000+0  14595-2 0  9993
2 47963  97.5166 251.5881 0011965 213.3507 146.6976 15.21350804 94728
CAS-5A                  
1 54684U 22167C   22352.28330027  .00008017  00000+0  51212-3 0  9993
2 54684  97.5379 127.1229 0013713 234.4405 193.9737 15.08833243  1355
